start=new Date('2022-02-14T00:00:00.000Z').valueOf();
sats=[{"PERIAPSIS":"546.325","REV_AT_EPOCH":"6813","REF_FRAME":"TEME","EPHEMERIS_TYPE":"0","ARG_OF_PERICENTER":"74.6578","TLE_LINE2":"2 47161  53.0536 118.7407 0001372  74.6578 285.4562 15.06379923 68136","MEAN_MOTION_DOT":"-0.00005054","MEAN_MOTION_DDOT":"0.0000000000000","MEAN_ANOMALY":"285.4562","OBJECT_TYPE":"PAYLOAD","APOAPSIS":"548.225","OBJECT_NAME":"STARLINK-1876","OBJECT_ID":"2020-088AR","SITE":"AFETR","PERIOD":"95.593","MEAN_MOTION":"15.06379923","COUNTRY_CODE":"US","NORAD_CAT_ID":"47161","FILE":"3299685","RCS_SIZE":"LARGE","TLE_LINE1":"1 47161U 20088AR  22044.53265232 -.00005054  00000-0 -32081-3 0  9990","MEAN_ELEMENT_THEORY":"SGP4","CENTER_NAME":"EARTH","LAUNCH_DATE":"2020-11-25","GP_ID":"195893477","ECCENTRICITY":"0.00013720","EPOCH":"2022-02-13T12:47:01.160448","BSTAR":"-0.00032081000000","CLASSIFICATION_TYPE":"U","TIME_SYSTEM":"UTC","ELEMENT_SET_NO":"999","SEMIMAJOR_AXIS":"6925.410","RA_OF_ASC_NODE":"118.7407","INCLINATION":"53.0536","DECAY_DATE":null},{"DECAY_DATE":null,"INCLINATION":"53.0546","SEMIMAJOR_AXIS":"6925.439","RA_OF_ASC_NODE":"128.7636","ELEMENT_SET_NO":"999","TIME_SYSTEM":"UTC","CLASSIFICATION_TYPE":"U","BSTAR":"-0.00044925000000","EPOCH":"2022-02-13T12:40:23.455200","ECCENTRICITY":"0.00014440","GP_ID":"195893727","CENTER_NAME":"EARTH","LAUNCH_DATE":"2020-11-25","MEAN_ELEMENT_THEORY":"SGP4","TLE_LINE1":"1 47162U 20088AS  22044.52804925 -.00006961  00000-0 -44925-3 0  9996","RCS_SIZE":"LARGE","FILE":"3299685","COUNTRY_CODE":"US","MEAN_MOTION":"15.06370476","NORAD_CAT_ID":"47162","PERIOD":"95.594","SITE":"AFETR","OBJECT_ID":"2020-088AS","OBJECT_NAME":"STARLINK-1877","APOAPSIS":"548.304","OBJECT_TYPE":"PAYLOAD","MEAN_MOTION_DDOT":"0.0000000000000","MEAN_ANOMALY":"291.1566","MEAN_MOTION_DOT":"-0.00006961","TLE_LINE2":"2 47162  53.0546 128.7636 0001444  68.9577 291.1566 15.06370476 67993","ARG_OF_PERICENTER":"68.9577","EPHEMERIS_TYPE":"0","REF_FRAME":"TEME","PERIAPSIS":"546.304","REV_AT_EPOCH":"6799"},{"CLASSIFICATION_TYPE":"U","TIME_SYSTEM":"UTC","GP_ID":"195902192","ECCENTRICITY":"0.00012520","EPOCH":"2022-02-13T18:13:26.704704","BSTAR":"-0.00015666000000","DECAY_DATE":null,"ELEMENT_SET_NO":"999","SEMIMAJOR_AXIS":"6925.409","RA_OF_ASC_NODE":"137.7349","INCLINATION":"53.0493","COUNTRY_CODE":"US","MEAN_MOTION":"15.06380160","NORAD_CAT_ID":"47163","FILE":"3299882","OBJECT_ID":"2020-088AT","SITE":"AFETR","PERIOD":"95.593","TLE_LINE1":"1 47163U 20088AT  22044.75933686 -.00002613  00000-0 -15666-3 0  9999","MEAN_ELEMENT_THEORY":"SGP4","CENTER_NAME":"EARTH","LAUNCH_DATE":"2020-11-25","RCS_SIZE":"LARGE","OBJECT_TYPE":"PAYLOAD","MEAN_MOTION_DDOT":"0.0000000000000","MEAN_MOTION_DOT":"-0.00002613","MEAN_ANOMALY":"288.5309","OBJECT_NAME":"STARLINK-1878","APOAPSIS":"548.141","PERIAPSIS":"546.407","REV_AT_EPOCH":"6813","EPHEMERIS_TYPE":"0","ARG_OF_PERICENTER":"71.5816","TLE_LINE2":"2 47163  53.0493 137.7349 0001252  71.5816 288.5309 15.06380160 68132","REF_FRAME":"TEME"},{"DECAY_DATE":null,"INCLINATION":"53.0551","ELEMENT_SET_NO":"999","SEMIMAJOR_AXIS":"6925.398","RA_OF_ASC_NODE":"108.6750","TIME_SYSTEM":"UTC","CLASSIFICATION_TYPE":"U","BSTAR":"-0.00027656000000","EPOCH":"2022-02-13T13:09:35.584992","ECCENTRICITY":"0.00016640","GP_ID":"195894716","LAUNCH_DATE":"2020-11-25","CENTER_NAME":"EARTH","TLE_LINE1":"1 47164U 20088AU  22044.54832853 -.00004397  00000-0 -27656-3 0  9994","MEAN_ELEMENT_THEORY":"SGP4","RCS_SIZE":"LARGE","FILE":"3299685","MEAN_MOTION":"15.06383834","COUNTRY_CODE":"US","NORAD_CAT_ID":"47164","PERIOD":"95.593","SITE":"AFETR","OBJECT_ID":"2020-088AU","OBJECT_NAME":"STARLINK-1879","APOAPSIS":"548.415","OBJECT_TYPE":"PAYLOAD","MEAN_MOTION_DDOT":"0.0000000000000","MEAN_ANOMALY":"309.8549","MEAN_MOTION_DOT":"-0.00004397","TLE_LINE2":"2 47164  53.0551 108.6750 0001664  50.2587 309.8549 15.06383834 68276","ARG_OF_PERICENTER":"50.2587","EPHEMERIS_TYPE":"0","REF_FRAME":"TEME","PERIAPSIS":"546.111","REV_AT_EPOCH":"6827"},{"APOAPSIS":"548.208","OBJECT_NAME":"STARLINK-1880","MEAN_MOTION_DOT":"-0.00004553","MEAN_MOTION_DDOT":"0.0000000000000","MEAN_ANOMALY":"283.2877","OBJECT_TYPE":"PAYLOAD","REF_FRAME":"TEME","TLE_LINE2":"2 47165  53.0537 128.9445 0001352  76.8262 283.2877 15.06381059 67988","ARG_OF_PERICENTER":"76.8262","EPHEMERIS_TYPE":"0","REV_AT_EPOCH":"6798","PERIAPSIS":"546.335","INCLINATION":"53.0537","ELEMENT_SET_NO":"999","SEMIMAJOR_AXIS":"6925.407","RA_OF_ASC_NODE":"128.9445","DECAY_DATE":null,"BSTAR":"-0.00028710000000","EPOCH":"2022-02-13T11:41:59.898912","ECCENTRICITY":"0.00013520","GP_ID":"195892978","TIME_SYSTEM":"UTC","CLASSIFICATION_TYPE":"U","RCS_SIZE":"LARGE","LAUNCH_DATE":"2020-11-25","CENTER_NAME":"EARTH","TLE_LINE1":"1 47165U 20088AV  22044.48749883 -.00004553  00000-0 -28710-3 0  9994","MEAN_ELEMENT_THEORY":"SGP4","PERIOD":"95.593","SITE":"AFETR","OBJECT_ID":"2020-088AV","FILE":"3299685","MEAN_MOTION":"15.06381059","COUNTRY_CODE":"US","NORAD_CAT_ID":"47165"},{"FILE":"3299685","COUNTRY_CODE":"US","NORAD_CAT_ID":"47166","MEAN_MOTION":"15.36372192","PERIOD":"93.727","OBJECT_ID":"2020-088AW","SITE":"AFETR","LAUNCH_DATE":"2020-11-25","CENTER_NAME":"EARTH","TLE_LINE1":"1 47166U 20088AW  22044.37406121  .00058480  00000-0  16230-2 0  9997","MEAN_ELEMENT_THEORY":"SGP4","RCS_SIZE":"LARGE","CLASSIFICATION_TYPE":"U","TIME_SYSTEM":"UTC","EPOCH":"2022-02-13T08:58:38.888544","BSTAR":"0.00162300000000","GP_ID":"195893228","ECCENTRICITY":"0.00011510","DECAY_DATE":null,"INCLINATION":"53.0489","ELEMENT_SET_NO":"999","SEMIMAJOR_AXIS":"6834.985","RA_OF_ASC_NODE":"72.6297","PERIAPSIS":"456.063","REV_AT_EPOCH":"6877","TLE_LINE2":"2 47166  53.0489  72.6297 0001151  77.3647 282.7483 15.36372192 68771","EPHEMERIS_TYPE":"0","ARG_OF_PERICENTER":"77.3647","REF_FRAME":"TEME","OBJECT_TYPE":"PAYLOAD","MEAN_ANOMALY":"282.7483","MEAN_MOTION_DDOT":"0.0000000000000","MEAN_MOTION_DOT":"0.00058480","OBJECT_NAME":"STARLINK-1881","APOAPSIS":"457.636"},{"OBJECT_NAME":"STARLINK-1884","APOAPSIS":"547.449","OBJECT_TYPE":"PAYLOAD","MEAN_MOTION_DDOT":"0.0000000000000","MEAN_ANOMALY":"101.7748","MEAN_MOTION_DOT":"-0.00005909","ARG_OF_PERICENTER":"258.3216","EPHEMERIS_TYPE":"0","TLE_LINE2":"2 47167  53.0529 128.7181 0000224 258.3216 101.7748 15.06373739 67997","REF_FRAME":"TEME","PERIAPSIS":"547.139","REV_AT_EPOCH":"6799","DECAY_DATE":null,"ELEMENT_SET_NO":"999","SEMIMAJOR_AXIS":"6925.429","RA_OF_ASC_NODE":"128.7181","INCLINATION":"53.0529","TIME_SYSTEM":"UTC","CLASSIFICATION_TYPE":"U","GP_ID":"195894466","ECCENTRICITY":"0.00002240","BSTAR":"-0.00037844000000","EPOCH":"2022-02-13T12:56:18.301344","TLE_LINE1":"1 47167U 20088AX  22044.53910071 -.00005909  00000-0 -37844-3 0  9995","MEAN_ELEMENT_THEORY":"SGP4","LAUNCH_DATE":"2020-11-25","CENTER_NAME":"EARTH","RCS_SIZE":"LARGE","NORAD_CAT_ID":"47167","COUNTRY_CODE":"US","MEAN_MOTION":"15.06373739","FILE":"3299685","SITE":"AFETR","OBJECT_ID":"2020-088AX","PERIOD":"95.594"},{"OBJECT_NAME":"STARLINK-1885","APOAPSIS":"440.348","OBJECT_TYPE":"PAYLOAD","MEAN_MOTION_DOT":"0.00035274","MEAN_MOTION_DDOT":"0.0000000000000","MEAN_ANOMALY":"53.5042","TLE_LINE2":"2 47168  53.0549 112.7716 0004376 306.5560  53.5042 15.42965053 68535","ARG_OF_PERICENTER":"306.5560","EPHEMERIS_TYPE":"0","REF_FRAME":"TEME","PERIAPSIS":"434.383","REV_AT_EPOCH":"6853","DECAY_DATE":null,"INCLINATION":"53.0549","SEMIMAJOR_AXIS":"6815.501","ELEMENT_SET_NO":"999","RA_OF_ASC_NODE":"112.7716","TIME_SYSTEM":"UTC","CLASSIFICATION_TYPE":"U","BSTAR":"0.00079439000000","EPOCH":"2022-02-13T16:19:25.321152","ECCENTRICITY":"0.00043760","GP_ID":"195902864","CENTER_NAME":"EARTH","LAUNCH_DATE":"2020-11-25","MEAN_ELEMENT_THEORY":"SGP4","TLE_LINE1":"1 47168U 20088AY  22044.68015418  .00035274  00000-0  79439-3 0  9995","RCS_SIZE":"LARGE","FILE":"3299907","NORAD_CAT_ID":"47168","COUNTRY_CODE":"US","MEAN_MOTION":"15.42965053","PERIOD":"93.327","SITE":"AFETR","OBJECT_ID":"2020-088AY"},{"DECAY_DATE":null,"INCLINATION":"53.0530","ELEMENT_SET_NO":"999","SEMIMAJOR_AXIS":"6925.401","RA_OF_ASC_NODE":"128.7847","CLASSIFICATION_TYPE":"U","TIME_SYSTEM":"UTC","EPOCH":"2022-02-13T12:35:04.145856","BSTAR":"-0.00021798000000","GP_ID":"195893478","ECCENTRICITY":"0.00013400","CENTER_NAME":"EARTH","LAUNCH_DATE":"2020-11-25","TLE_LINE1":"1 47170U 20088BA  22044.52435354 -.00003525  00000-0 -21798-3 0  9997","MEAN_ELEMENT_THEORY":"SGP4","RCS_SIZE":"LARGE","FILE":"3299685","MEAN_MOTION":"15.06382928","COUNTRY_CODE":"US","NORAD_CAT_ID":"47170","PERIOD":"95.593","OBJECT_ID":"2020-088BA","SITE":"AFETR","OBJECT_NAME":"STARLINK-1887","APOAPSIS":"548.194","OBJECT_TYPE":"PAYLOAD","MEAN_MOTION_DDOT":"0.0000000000000","MEAN_ANOMALY":"288.5786","MEAN_MOTION_DOT":"-0.00003525","TLE_LINE2":"2 47170  53.0530 128.7847 0001340  71.5349 288.5786 15.06382928 67990","EPHEMERIS_TYPE":"0","ARG_OF_PERICENTER":"71.5349","REF_FRAME":"TEME","PERIAPSIS":"546.338","REV_AT_EPOCH":"6799"},{"APOAPSIS":"548.222","OBJECT_NAME":"STARLINK-1888","MEAN_MOTION_DDOT":"0.0000000000000","MEAN_MOTION_DOT":"-0.00006546","MEAN_ANOMALY":"295.9719","OBJECT_TYPE":"PAYLOAD","REF_FRAME":"TEME","TLE_LINE2":"2 47171  53.0530 119.0007 0001369  64.1411 295.9719 15.06380361 68124","EPHEMERIS_TYPE":"0","ARG_OF_PERICENTER":"64.1411","PERIAPSIS":"546.326","REV_AT_EPOCH":"6812","INCLINATION":"53.0530","RA_OF_ASC_NODE":"119.0007","SEMIMAJOR_AXIS":"6925.409","ELEMENT_SET_NO":"999","DECAY_DATE":null,"EPOCH":"2022-02-13T11:27:23.497056","BSTAR":"-0.00042119000000","ECCENTRICITY":"0.00013690","GP_ID":"195893728","CLASSIFICATION_TYPE":"U","TIME_SYSTEM":"UTC","RCS_SIZE":"LARGE","LAUNCH_DATE":"2020-11-25","CENTER_NAME":"EARTH","MEAN_ELEMENT_THEORY":"SGP4","TLE_LINE1":"1 47171U 20088BB  22044.47735529 -.00006546  00000-0 -42119-3 0  9995","PERIOD":"95.593","OBJECT_ID":"2020-088BB","SITE":"AFETR","FILE":"3299685","NORAD_CAT_ID":"47171","COUNTRY_CODE":"US","MEAN_MOTION":"15.06380361"}];
